{"epoch":1784762836,"count":18316,"objects":[{"id":"40042","name":"POLYITAN 1","type":"PAYLOAD","l1":"1 40042U 14033AJ  26203.54076988  .00020091  00000-0  60419-3 0  9996","l2":"2 40042  98.0941 233.1772 0007170  42.0516 318.1274 15.34411318659019"},{"id":"40043","name":"TIGRISAT","type":"PAYLOAD","l1":"1 40043U 14033AK  26203.35096855  .00001165  00000-0  13947-3 0  9996","l2":"2 40043  97.7874 352.5676 0048097 320.4832  39.2879 14.85264090650849"},{"id":"40045","name":"AEROCUBE 6A","type":"PAYLOAD","l1":"1 40045U 14033AM  26203.01924188  .00006076  00000-0  50747-3 0  9995","l2":"2 40045  97.7273   9.6095 0036089 257.4142 102.3043 14.98399557651836"},{"id":"40046","name":"AEROCUBE 6B","type":"PAYLOAD","l1":"1 40046U 14033AN  26202.98773221  .00005555  00000-0  44654-3 0  9992","l2":"2 40046  97.7205   9.4361 0038257 246.1598 113.5613 14.99844908651973"},{"id":"40055","name":"CANX-4","type":"PAYLOAD","l1":"1 40055U 14034C   26203.61521628  .00000638  00000-0  89047-4 0  9999","l2":"2 40055  98.3073  80.2214 0011382 256.1364 103.8581 14.81319972649779"},{"id":"40056","name":"CANX-5","type":"PAYLOAD","l1":"1 40056U 14034D   26203.61323535  .00000643  00000-0  89622-4 0  9992","l2":"2 40056  98.3075  80.2650 0011386 256.3978 103.5965 14.81337367640584"},{"id":"40074","name":"UKUBE 1","type":"PAYLOAD","l1":"1 40074U 14037F   26203.00273654  .00008356  00000-0  46405-3 0  9994","l2":"2 40074  98.4254 209.9476 0003135  76.9955 283.1624 15.14023415653825"},{"id":"40119","name":"BRITE-PL 2","type":"PAYLOAD","l1":"1 40119U 14049B   26203.58697205  .00001590  00000-0  15181-3 0  9992","l2":"2 40119  97.9122 315.8672 0013634 358.1835   1.9333 14.94702812646732"},{"id":"40965","name":"AEROCUBE 5C","type":"PAYLOAD","l1":"1 40965U 15058B   26203.30475185  .00003332  00000-0  29424-3 0  9994","l2":"2 40965  64.7664 153.3267 0132876  49.7282 311.5357 14.91610726370894"},{"id":"40966","name":"AEROCUBE 7","type":"PAYLOAD","l1":"1 40966U 15058C   26203.26676023  .00005215  00000-0  41235-3 0  9990","l2":"2 40966  64.7619 134.9185 0122556  48.0509 313.0971 14.95963652371205"},{"id":"40967","name":"FOX-1","type":"PAYLOAD","l1":"1 40967U 15058D   26203.36377450  .00003414  00000-0  30490-3 0  9994","l2":"2 40967  64.7740 169.6512 0132984  43.0929 318.0501 14.91122448118813"},{"id":"40968","name":"BISONSAT","type":"PAYLOAD","l1":"1 40968U 15058E   26203.30741598  .00005472  00000-0  43080-3 0  9992","l2":"2 40968  64.7744 148.9094 0121647  39.4656 321.5240 14.96140076121919"},{"id":"40970","name":"SNAP-3 ALICE","type":"PAYLOAD","l1":"1 40970U 15058G   26202.81964392  .00164560  00000-0  13862-2 0  9997","l2":"2 40970  64.7492 343.4231 0026296 344.3916  15.6420 15.68630335122305"},{"id":"40971","name":"LMRST-SAT","type":"PAYLOAD","l1":"1 40971U 15058H   26203.32813095  .00003103  00000-0  28031-3 0  9998","l2":"2 40971  64.7746 166.1674 0134487  45.0995 316.0939 14.90735235118793"},{"id":"40972","name":"SNAP-3 EDDIE","type":"PAYLOAD","l1":"1 40972U 15058J   26202.78113421  .00183998  00000-0  14492-2 0  9990","l2":"2 40972  64.7407 334.0108 0027522 347.0844  12.9598 15.70146276124447"},{"id":"40973","name":"PROPCUBE 3","type":"PAYLOAD","l1":"1 40973U 15058K   26203.20994527  .00004211  00000-0  34645-3 0  9996","l2":"2 40973  64.7679 143.0939 0126305  46.3334 314.8166 14.94459253120034"},{"id":"40974","name":"SINOD-D 1","type":"PAYLOAD","l1":"1 40974U 15058L   26202.98089666  .00013682  00000-0  63849-3 0  9990","l2":"2 40974  64.7585  61.0694 0082717  32.8987 327.7246 15.17053963120890"},{"id":"40975","name":"SNAP-3 JIMI","type":"PAYLOAD","l1":"1 40975U 15058M   26203.46626316  .00007486  00000-0  50395-3 0  9991","l2":"2 40975  64.7645 108.1182 0108339  41.5074 319.4206 15.02683504119522"},{"id":"40976","name":"PROPCUBE 1","type":"PAYLOAD","l1":"1 40976U 15058N   26203.31539530  .00002804  00000-0  26510-3 0  9998","l2":"2 40976  64.7730 186.3510 0133036  47.3732 313.8504 14.89355925121493"},{"id":"40977","name":"SINOD-D 3","type":"PAYLOAD","l1":"1 40977U 15058P   26203.31417609  .00004767  00000-0  39710-3 0  9997","l2":"2 40977  64.7714 166.1100 0121626  44.4073 316.6714 14.94218075120005"},{"id":"41849","name":"RAVAN","type":"PAYLOAD","l1":"1 41849U 16067B   26203.21143573  .00064520  00000-0  85565-3 0  9994","l2":"2 41849  97.9830  96.9175 0003316 187.3296 172.7910 15.58046743533146"},{"id":"41850","name":"CELTEE 1","type":"PAYLOAD","l1":"1 41850U 16067C   26203.56181069  .00004720  00000-0  22280-3 0  9997","l2":"2 41850  98.0632  72.5415 0002469 100.2184 259.9328 15.19990832531250"},{"id":"41851","name":"OPTICUBE 04","type":"PAYLOAD","l1":"1 41851U 16067D   26203.53799512  .00001775  00000-0  11404-3 0  9996","l2":"2 41851  98.0669  57.6633 0015574   3.6839 356.4501 15.09792860530504"},{"id":"41852","name":"AEROCUBE 8D","type":"PAYLOAD","l1":"1 41852U 16067E   26203.20251589  .00007533  00000-0  30653-3 0  9993","l2":"2 41852  98.0636  76.0403 0004169  38.5037 321.6496 15.24838026531403"},{"id":"41853","name":"AEROCUBE 8C","type":"PAYLOAD","l1":"1 41853U 16067F   26203.61536816  .00007415  00000-0  29946-3 0  9990","l2":"2 41853  98.0511  73.6672 0003738 310.5430  49.5480 15.25096915531467"},{"id":"42846","name":"CORVUS BC2","type":"PAYLOAD","l1":"1 42846U 17042X   26203.40027891  .00002704  00000-0  18692-3 0  9994","l2":"2 42846  97.4098   3.3923 0012704 358.0532   2.0644 15.06484162492360"},{"id":"42847","name":"CORVUS BC1","type":"PAYLOAD","l1":"1 42847U 17042Y   26202.99253482  .00002944  00000-0  20227-3 0  9998","l2":"2 42847  97.4131   3.8368 0010982 335.6933  24.3775 15.06649513492331"},{"id":"43016","name":"MAKERSAT 0","type":"PAYLOAD","l1":"1 43016U 17073D   26203.17461343  .00022676  00000-0  59187-3 0  9990","l2":"2 43016  97.4572  85.9833 0105731 147.5495 213.2308 15.33199943471826"},{"id":"43759","name":"SIRION PATHFINDER-2","type":"PAYLOAD","l1":"1 43759U 18099B   26203.39275934  .00003802  00000-0  20801-3 0  9997","l2":"2 43759  97.4236 251.6156 0009213 167.1431 193.0038 15.14818383417957"},{"id":"43767","name":"CORVUS BC4","type":"PAYLOAD","l1":"1 43767U 18099K   26203.05050385  .00004109  00000-0  23798-3 0  9999","l2":"2 43767  97.4051 245.0119 0006875 231.7907 128.2706 15.12739046417671"}]}