OBJECT_NAME,OBJECT_ID,EPOCH,MEAN_MOTION,ECCENTRICITY,INCLINATION,RA_OF_ASC_NODE,ARG_OF_PERICENTER,MEAN_ANOMALY,EPHEMERIS_TYPE,CLASSIFICATION_TYPE,NORAD_CAT_ID,ELEMENT_SET_NO,REV_AT_EPOCH,BSTAR,MEAN_MOTION_DOT,MEAN_MOTION_DDOT
POLYITAN-1,2014-033AJ,2026-07-22T12:58:42.517632,15.34411318,.00071697,98.0941,233.1772,42.0516,318.1274,0,U,40042,999,65901,.60418699E-3,.20091E-3,0
TIGRISAT,2014-033AK,2026-07-22T08:25:23.682720,14.85264090,.00480974,97.7874,352.5676,320.4832,39.2879,0,U,40043,999,65084,.13946501E-3,.1165E-4,0
AEROCUBE 6A,2014-033AM,2026-07-22T00:27:42.498432,14.98399557,.00360891,97.7273,9.6095,257.4142,102.3043,0,U,40045,999,65183,.50746973E-3,.6076E-4,0
AEROCUBE 6B,2014-033AN,2026-07-21T23:42:20.062944,14.99844908,.00382573,97.7205,9.4361,246.1598,113.5613,0,U,40046,999,65197,.44654243E-3,.5555E-4,0
CANX-4,2014-034C,2026-07-22T14:45:54.686592,14.81319972,.0011382,98.3073,80.2214,256.1364,103.8581,0,U,40055,999,64977,.89047203E-4,.638E-5,0
CANX-5,2014-034D,2026-07-22T14:43:03.534240,14.81337367,.00113863,98.3075,80.2650,256.3978,103.5965,0,U,40056,999,64058,.8962165E-4,.643E-5,0
UKUBE-1,2014-037F,2026-07-22T00:03:56.437056,15.14023415,.00031348,98.4254,209.9476,76.9955,283.1624,0,U,40074,999,65382,.4640491E-3,.8356E-4,0
BRITE-PL2 (HEWELIUSZ),2014-049B,2026-07-22T14:05:14.385120,14.94702812,.0013634,97.9122,315.8672,358.1835,1.9333,0,U,40119,999,64673,.15180654E-3,.159E-4,0
AEROCUBE 5C,2015-058B,2026-07-22T07:18:50.559840,14.91610726,.01328757,64.7664,153.3267,49.7282,311.5357,0,U,40965,999,37089,.29424279E-3,.3332E-4,0
AEROCUBE 7,2015-058C,2026-07-22T06:24:08.083872,14.95963652,.01225557,64.7619,134.9185,48.0509,313.0971,0,U,40966,999,37120,.41234726E-3,.5215E-4,0
FOX-1A (AO-85),2015-058D,2026-07-22T08:43:50.116800,14.91122448,.01329839,64.7740,169.6512,43.0929,318.0501,0,U,40967,999,11881,.30490392E-3,.3414E-4,0
SINOD-D 1,2015-058E,2026-07-22T07:22:40.740672,14.96140076,.01216474,64.7744,148.9094,39.4656,321.5240,0,U,40968,999,12191,.43079661E-3,.5472E-4,0
SNAP-3 ALICE,2015-058G,2026-07-21T19:40:17.234688,15.68630335,.00262961,64.7492,343.4231,344.3916,15.6420,0,U,40970,999,12230,.13862395E-2,.16456E-2,0
LMRST-SAT,2015-058H,2026-07-22T07:52:30.514080,14.90735235,.01344871,64.7746,166.1674,45.0995,316.0939,0,U,40971,999,11879,.28031469E-3,.3103E-4,0
SNAP-3 EDDIE,2015-058J,2026-07-21T18:44:49.995744,15.70146276,.00275224,64.7407,334.0108,347.0844,12.9598,0,U,40972,999,12444,.14491926E-2,.183998E-2,0
PROPCUBE 3,2015-058K,2026-07-22T05:02:19.271328,14.94459253,.01263052,64.7679,143.0939,46.3334,314.8166,0,U,40973,999,12003,.34645068E-3,.4211E-4,0
BISONSAT,2015-058L,2026-07-21T23:32:29.471424,15.17053963,.00827168,64.7585,61.0694,32.8987,327.7246,0,U,40974,999,12089,.63848961E-3,.13682E-3,0
SNAP-3 JIMI,2015-058M,2026-07-22T11:11:25.137024,15.02683504,.01083386,64.7645,108.1182,41.5074,319.4206,0,U,40975,999,11952,.50395117E-3,.7486E-4,0
PROPCUBE 1 (FLORA),2015-058N,2026-07-22T07:34:10.153920,14.89355925,.0133036,64.7730,186.3510,47.3732,313.8504,0,U,40976,999,12149,.26510306E-3,.2804E-4,0
SINOD-D 3,2015-058P,2026-07-22T07:32:24.814176,14.94218075,.01216261,64.7714,166.1100,44.4073,316.6714,0,U,40977,999,12000,.39709694E-3,.4767E-4,0
RAVAN,2016-067B,2026-07-22T05:04:28.047072,15.58046743,.00033161,97.9830,96.9175,187.3296,172.7910,0,U,41849,999,53314,.85564783E-3,.6452E-3,0
CELTEE 1,2016-067C,2026-07-22T13:29:00.443616,15.19990832,.00024686,98.0632,72.5415,100.2184,259.9328,0,U,41850,999,53125,.22280221E-3,.472E-4,0
OPTICUBE 04,2016-067D,2026-07-22T12:54:42.778368,15.09792860,.00155745,98.0669,57.6633,3.6839,356.4501,0,U,41851,999,53050,.11404182E-3,.1775E-4,0
AEROCUBE 8D,2016-067E,2026-07-22T04:51:37.372896,15.24838026,.00041685,98.0636,76.0403,38.5037,321.6496,0,U,41852,999,53140,.30652753E-3,.7533E-4,0
AEROCUBE 8C,2016-067F,2026-07-22T14:46:07.809024,15.25096915,.00037384,98.0511,73.6672,310.5430,49.5480,0,U,41853,999,53146,.2994591E-3,.7415E-4,0
CORVUS BC2,2017-042X,2026-07-22T09:36:24.097824,15.06484162,.00127041,97.4098,3.3923,358.0532,2.0644,0,U,42846,999,49236,.18691588E-3,.2704E-4,0
CORVUS BC1,2017-042Y,2026-07-21T23:49:15.008448,15.06649513,.0010982,97.4131,3.8368,335.6933,24.3775,0,U,42847,999,49233,.20227378E-3,.2944E-4,0
MAKERSAT 0,2017-073D,2026-07-22T04:11:26.600352,15.33199943,.01057308,97.4572,85.9833,147.5495,213.2308,0,U,43016,999,47182,.59186915E-3,.22676E-3,0
SIRION PATHFINDER-2,2018-099B,2026-07-22T09:25:34.406976,15.14818383,.00092127,97.4236,251.6156,167.1431,193.0038,0,U,43759,999,41795,.20801386E-3,.3802E-4,0
CORVUS BC4,2018-099K,2026-07-22T01:12:43.532640,15.12739046,.00068752,97.4051,245.0119,231.7907,128.2706,0,U,43767,999,41767,.23797879E-3,.4109E-4,0
